STARLINK-1559           
1 46077U 20055BC  26068.23360559  .00042685  00000+0  14779-2 0  9995
2 46077  53.0254  76.0659 0004229  33.9710 326.1559 15.29461733309518
STARLINK-35452          
1 66104U 25236U   26068.36904450  .00009763  00000+0  34144-3 0  9991
2 66104  53.1590 105.4911 0001335  87.3218 272.7936 15.30188556 22893
